start=new Date('2022-10-24T00:00:00.000Z').valueOf();
sats=[{"CENTER_NAME":"EARTH","MEAN_ELEMENT_THEORY":"SGP4","SEMIMAJOR_AXIS":"6950.210","SITE":"AFWTR","LAUNCH_DATE":"2021-09-14","PERIAPSIS":"570.049","BSTAR":"-0.00002053700000","MEAN_MOTION_DDOT":"0.0000000000000","EPOCH":"2022-10-23T18:23:47.813568","INCLINATION":"69.9986","MEAN_MOTION_DOT":"-0.00000338","TLE_LINE1":"1 49173U 21082AV  22296.76652562 -.00000338  00000-0 -20537-4 0  9994","DECAY_DATE":null,"MEAN_ANOMALY":"103.6319","REF_FRAME":"TEME","ELEMENT_SET_NO":"999","PERIOD":"96.107","EPHEMERIS_TYPE":"0","OBJECT_ID":"2021-082AV","MEAN_MOTION":"14.98324331","OBJECT_NAME":"STARLINK-3045","FILE":"3630494","REV_AT_EPOCH":"6179","RCS_SIZE":"LARGE","COUNTRY_CODE":"US","APOAPSIS":"574.101","TLE_LINE2":"2 49173  69.9986 143.0805 0002915 256.4516 103.6319 14.98324331 61794","CLASSIFICATION_TYPE":"U","OBJECT_TYPE":"PAYLOAD","ARG_OF_PERICENTER":"256.4516","RA_OF_ASC_NODE":"143.0805","NORAD_CAT_ID":"49173","GP_ID":"215970608","ECCENTRICITY":"0.00029150","TIME_SYSTEM":"UTC"},{"MEAN_MOTION":"14.97714326","OBJECT_ID":"2021-082AW","EPHEMERIS_TYPE":"0","OBJECT_NAME":"STARLINK-3047","RCS_SIZE":"LARGE","REV_AT_EPOCH":"6297","FILE":"3630604","COUNTRY_CODE":"US","CLASSIFICATION_TYPE":"U","TLE_LINE2":"2 49174  69.9989 143.0009 0002274 295.7156  64.3767 14.97714326 62975","OBJECT_TYPE":"PAYLOAD","APOAPSIS":"575.543","NORAD_CAT_ID":"49174","RA_OF_ASC_NODE":"143.0009","ARG_OF_PERICENTER":"295.7156","GP_ID":"215995452","ECCENTRICITY":"0.00022740","TIME_SYSTEM":"UTC","MEAN_ELEMENT_THEORY":"SGP4","CENTER_NAME":"EARTH","PERIAPSIS":"572.382","LAUNCH_DATE":"2021-09-14","SITE":"AFWTR","SEMIMAJOR_AXIS":"6952.097","BSTAR":"0.00034729000000","MEAN_MOTION_DDOT":"0.0000000000000","INCLINATION":"69.9989","EPOCH":"2022-10-23T20:35:22.875360","REF_FRAME":"TEME","MEAN_ANOMALY":"64.3767","DECAY_DATE":null,"MEAN_MOTION_DOT":"0.00003988","TLE_LINE1":"1 49174U 21082AW  22296.85790365  .00003988  00000-0  34729-3 0  9998","PERIOD":"96.147","ELEMENT_SET_NO":"999"},{"COUNTRY_CODE":"US","REV_AT_EPOCH":"6180","RCS_SIZE":"LARGE","FILE":"3630520","OBJECT_NAME":"STARLINK-3087","EPHEMERIS_TYPE":"0","MEAN_MOTION":"14.98335641","OBJECT_ID":"2021-082AX","ECCENTRICITY":"0.00032270","TIME_SYSTEM":"UTC","GP_ID":"215970178","NORAD_CAT_ID":"49175","ARG_OF_PERICENTER":"254.9542","RA_OF_ASC_NODE":"142.8582","APOAPSIS":"574.283","CLASSIFICATION_TYPE":"U","TLE_LINE2":"2 49175  69.9986 142.8582 0003227 254.9542 105.1260 14.98335641 61804","OBJECT_TYPE":"PAYLOAD","BSTAR":"0.00002482400000","SEMIMAJOR_AXIS":"6950.175","SITE":"AFWTR","PERIAPSIS":"569.798","LAUNCH_DATE":"2021-09-14","CENTER_NAME":"EARTH","MEAN_ELEMENT_THEORY":"SGP4","PERIOD":"96.107","ELEMENT_SET_NO":"999","MEAN_ANOMALY":"105.1260","DECAY_DATE":null,"MEAN_MOTION_DOT":"0.00000203","TLE_LINE1":"1 49175U 21082AX  22296.85983150  .00000203  00000-0  24824-4 0  9998","REF_FRAME":"TEME","EPOCH":"2022-10-23T20:38:09.441600","INCLINATION":"69.9986","MEAN_MOTION_DDOT":"0.0000000000000"},{"TLE_LINE2":"2 49176  69.9990 123.0516 0002976 260.1246  99.9577 14.98333300 62282","OBJECT_TYPE":"PAYLOAD","CLASSIFICATION_TYPE":"U","APOAPSIS":"574.116","NORAD_CAT_ID":"49176","RA_OF_ASC_NODE":"123.0516","ARG_OF_PERICENTER":"260.1246","GP_ID":"215996955","ECCENTRICITY":"0.00029760","TIME_SYSTEM":"UTC","MEAN_MOTION":"14.98333300","OBJECT_ID":"2021-082AY","EPHEMERIS_TYPE":"0","OBJECT_NAME":"STARLINK-3069","RCS_SIZE":"LARGE","REV_AT_EPOCH":"6228","FILE":"3630604","COUNTRY_CODE":"US","MEAN_MOTION_DDOT":"0.0000000000000","INCLINATION":"69.9990","EPOCH":"2022-10-23T18:46:17.489568","REF_FRAME":"TEME","MEAN_ANOMALY":"99.9577","DECAY_DATE":null,"MEAN_MOTION_DOT":"0.00001074","TLE_LINE1":"1 49176U 21082AY  22296.78214687  .00001074  00000-0  97817-4 0  9992","PERIOD":"96.107","ELEMENT_SET_NO":"999","MEAN_ELEMENT_THEORY":"SGP4","CENTER_NAME":"EARTH","PERIAPSIS":"569.979","LAUNCH_DATE":"2021-09-14","SEMIMAJOR_AXIS":"6950.183","SITE":"AFWTR","BSTAR":"0.00009781700000"},{"RCS_SIZE":"LARGE","REV_AT_EPOCH":"6348","FILE":"3630604","COUNTRY_CODE":"US","EPHEMERIS_TYPE":"0","MEAN_MOTION":"14.98334922","OBJECT_ID":"2021-082AZ","OBJECT_NAME":"STARLINK-3103","GP_ID":"215995703","ECCENTRICITY":"0.00030280","TIME_SYSTEM":"UTC","APOAPSIS":"574.147","TLE_LINE2":"2 49177  69.9997 123.0071 0003028 260.6976  99.3840 14.98334922 63481","OBJECT_TYPE":"PAYLOAD","CLASSIFICATION_TYPE":"U","NORAD_CAT_ID":"49177","ARG_OF_PERICENTER":"260.6976","RA_OF_ASC_NODE":"123.0071","SITE":"AFWTR","SEMIMAJOR_AXIS":"6950.178","PERIAPSIS":"569.938","LAUNCH_DATE":"2021-09-14","BSTAR":"0.00013107000000","CENTER_NAME":"EARTH","MEAN_ELEMENT_THEORY":"SGP4","DECAY_DATE":null,"MEAN_ANOMALY":"99.3840","TLE_LINE1":"1 49177U 21082AZ  22296.80122783  .00001471  00000-0  13107-3 0  9991","MEAN_MOTION_DOT":"0.00001471","REF_FRAME":"TEME","PERIOD":"96.107","ELEMENT_SET_NO":"999","MEAN_MOTION_DDOT":"0.0000000000000","EPOCH":"2022-10-23T19:13:46.084512","INCLINATION":"69.9997"},{"APOAPSIS":"574.540","TLE_LINE2":"2 49178  70.0010 162.7664 0003629 239.6666 120.4135 14.98342884 62475","OBJECT_TYPE":"PAYLOAD","CLASSIFICATION_TYPE":"U","RA_OF_ASC_NODE":"162.7664","ARG_OF_PERICENTER":"239.6666","NORAD_CAT_ID":"49178","GP_ID":"215971858","TIME_SYSTEM":"UTC","ECCENTRICITY":"0.00036290","EPHEMERIS_TYPE":"0","OBJECT_ID":"2021-082BA","MEAN_MOTION":"14.98342884","OBJECT_NAME":"STARLINK-3086","FILE":"3630570","RCS_SIZE":"LARGE","REV_AT_EPOCH":"6247","COUNTRY_CODE":"US","MEAN_MOTION_DDOT":"0.0000000000000","EPOCH":"2022-10-23T21:31:10.860672","INCLINATION":"70.0010","MEAN_MOTION_DOT":"0.00008087","TLE_LINE1":"1 49178U 21082BA  22296.89665348  .00008087  00000-0  68453-3 0  9994","DECAY_DATE":null,"MEAN_ANOMALY":"120.4135","REF_FRAME":"TEME","ELEMENT_SET_NO":"999","PERIOD":"96.106","CENTER_NAME":"EARTH","MEAN_ELEMENT_THEORY":"SGP4","SEMIMAJOR_AXIS":"6950.153","SITE":"AFWTR","LAUNCH_DATE":"2021-09-14","PERIAPSIS":"569.496","BSTAR":"0.00068453000000"},{"OBJECT_NAME":"STARLINK-3043","OBJECT_ID":"2021-082BB","MEAN_MOTION":"14.98317220","EPHEMERIS_TYPE":"0","COUNTRY_CODE":"US","FILE":"3630604","REV_AT_EPOCH":"6228","RCS_SIZE":"LARGE","ARG_OF_PERICENTER":"260.8851","RA_OF_ASC_NODE":"123.0298","NORAD_CAT_ID":"49179","TLE_LINE2":"2 49179  69.9996 123.0298 0003109 260.8851  99.1956 14.98317220 62282","CLASSIFICATION_TYPE":"U","OBJECT_TYPE":"PAYLOAD","APOAPSIS":"574.258","ECCENTRICITY":"0.00031090","TIME_SYSTEM":"UTC","GP_ID":"215996704","MEAN_ELEMENT_THEORY":"SGP4","CENTER_NAME":"EARTH","BSTAR":"0.00009689200000","LAUNCH_DATE":"2021-09-14","PERIAPSIS":"569.937","SEMIMAJOR_AXIS":"6950.232","SITE":"AFWTR","INCLINATION":"69.9996","EPOCH":"2022-10-23T19:00:03.057120","MEAN_MOTION_DDOT":"0.0000000000000","ELEMENT_SET_NO":"999","PERIOD":"96.108","REF_FRAME":"TEME","MEAN_MOTION_DOT":"0.00001063","TLE_LINE1":"1 49179U 21082BB  22296.79170205  .00001063  00000-0  96892-4 0  9993","MEAN_ANOMALY":"99.1956","DECAY_DATE":null},{"OBJECT_NAME":"STARLINK-3050","EPHEMERIS_TYPE":"0","OBJECT_ID":"2021-082BC","MEAN_MOTION":"14.98329359","COUNTRY_CODE":"US","FILE":"3630604","REV_AT_EPOCH":"6297","RCS_SIZE":"LARGE","RA_OF_ASC_NODE":"142.8978","ARG_OF_PERICENTER":"257.9233","NORAD_CAT_ID":"49180","APOAPSIS":"573.966","TLE_LINE2":"2 49180  70.0002 142.8978 0002742 257.9233 102.1619 14.98329359 62975","CLASSIFICATION_TYPE":"U","OBJECT_TYPE":"PAYLOAD","ECCENTRICITY":"0.00027420","TIME_SYSTEM":"UTC","GP_ID":"215996455","CENTER_NAME":"EARTH","MEAN_ELEMENT_THEORY":"SGP4","BSTAR":"0.00017733000000","SITE":"AFWTR","SEMIMAJOR_AXIS":"6950.195","LAUNCH_DATE":"2021-09-14","PERIAPSIS":"570.154","EPOCH":"2022-10-23T20:10:42.822624","INCLINATION":"70.0002","MEAN_MOTION_DDOT":"0.0000000000000","ELEMENT_SET_NO":"999","PERIOD":"96.107","TLE_LINE1":"1 49180U 21082BC  22296.84077341  .00002023  00000-0  17733-3 0  9991","MEAN_MOTION_DOT":"0.00002023","MEAN_ANOMALY":"102.1619","DECAY_DATE":null,"REF_FRAME":"TEME"},{"PERIAPSIS":"569.783","LAUNCH_DATE":"2021-09-14","SEMIMAJOR_AXIS":"6950.133","SITE":"AFWTR","BSTAR":"0.00045936000000","MEAN_ELEMENT_THEORY":"SGP4","CENTER_NAME":"EARTH","REF_FRAME":"TEME","DECAY_DATE":null,"MEAN_ANOMALY":"95.1988","TLE_LINE1":"1 49181U 21082BD  22296.81080889  .00005395  00000-0  45936-3 0  9991","MEAN_MOTION_DOT":"0.00005395","PERIOD":"96.106","ELEMENT_SET_NO":"999","MEAN_MOTION_DDOT":"0.0000000000000","INCLINATION":"70.0003","EPOCH":"2022-10-23T19:27:33.888096","RCS_SIZE":"LARGE","REV_AT_EPOCH":"6249","FILE":"3630604","COUNTRY_CODE":"US","MEAN_MOTION":"14.98349313","OBJECT_ID":"2021-082BD","EPHEMERIS_TYPE":"0","OBJECT_NAME":"STARLINK-3059","GP_ID":"215995203","TIME_SYSTEM":"UTC","ECCENTRICITY":"0.00031870","TLE_LINE2":"2 49181  70.0003 162.9800 0003187 264.8807  95.1988 14.98349313 62491","CLASSIFICATION_TYPE":"U","OBJECT_TYPE":"PAYLOAD","APOAPSIS":"574.213","NORAD_CAT_ID":"49181","ARG_OF_PERICENTER":"264.8807","RA_OF_ASC_NODE":"162.9800"},{"REF_FRAME":"TEME","TLE_LINE1":"1 49408U 21104A   22296.78505307 -.00185201  00000-0 -12030-1 0  9995","MEAN_MOTION_DOT":"-0.00185201","DECAY_DATE":null,"MEAN_ANOMALY":"49.0341","ELEMENT_SET_NO":"999","PERIOD":"95.458","MEAN_MOTION_DDOT":"0.0000000000000","INCLINATION":"53.2176","EPOCH":"2022-10-23T18:50:28.585248","LAUNCH_DATE":"2021-11-13","PERIAPSIS":"539.776","SITE":"AFETR","SEMIMAJOR_AXIS":"6918.877","BSTAR":"-0.01203000000000","MEAN_ELEMENT_THEORY":"SGP4","CENTER_NAME":"EARTH","GP_ID":"215995727","TIME_SYSTEM":"UTC","ECCENTRICITY":"0.00013970","TLE_LINE2":"2 49408  53.2176   3.8455 0001397 311.0530  49.0341 15.08513959 52508","OBJECT_TYPE":"PAYLOAD","CLASSIFICATION_TYPE":"U","APOAPSIS":"541.709","RA_OF_ASC_NODE":"3.8455","ARG_OF_PERICENTER":"311.0530","NORAD_CAT_ID":"49408","FILE":"3630604","REV_AT_EPOCH":"5250","RCS_SIZE":"LARGE","COUNTRY_CODE":"US","OBJECT_ID":"2021-104A","MEAN_MOTION":"15.08513959","EPHEMERIS_TYPE":"0","OBJECT_NAME":"STARLINK-3151"}];
